satname,norad_id,inclination_deg,eccentricity,mean_motion_rev_per_day,perigee_km,apogee_km,l1,l2
STARLINK-1216,45185,53.1579,0.0001081,15.30210266,474.44357311995736,475.9252612103501,1 45185U 20012H   26097.67879169  .00012496  00000+0  43318-3 0  9998,2 45185  53.1579 264.5775 0001081  90.8453 269.2672 15.30210266339331
STARLINK-1225,45187,53.1587,0.0001065,15.30206506,474.4657638183062,475.92552367142434,1 45187U 20012K   26097.87163248  .00003487  00000+0  12978-3 0  9994,2 45187  53.1587 264.1203 0001065  85.9261 274.1862 15.30206506339404
STARLINK-1230,45189,53.159,0.0001134,15.30193173,474.45828125028856,476.01262612278515,1 45189U 20012M   26097.81581229  .00003019  00000+0  11405-3 0  9998,2 45189  53.1590 264.4387 0001134  85.0559 275.0571 15.30193173336627
STARLINK-1234,45190,53.0414,0.000823,15.67147938,361.51707380298285,372.61968185488877,1 45190U 20012N   26097.51588310  .00056011  00000+0  51442-3 0  9990,2 45190  53.0414 183.8044 0008230  20.2659 339.8682 15.67147938340392
STARLINK-1269,45197,53.1567,6.61e-05,15.30229443,474.6741585771124,475.5801600989762,1 45197U 20012V   26097.87794616  .00008931  00000+0  31302-3 0  9995,2 45197  53.1567 264.0102 0000661  99.1445 260.9631 15.30229443339381
STARLINK-1154,45198,53.0438,0.0003099,15.51261445,410.93738083706194,415.14655356093135,1 45198U 20012W   26097.91668981  .00088731  00000+0  14793-2 0  9996,2 45198  53.0438 230.0695 0003099 232.2424  91.7218 15.51261445  5914
STARLINK-1199,45201,53.1569,0.0001144,15.30207871,474.4075473446237,475.9755889210128,1 45201U 20012Z   26097.71660494  .00005561  00000+0  19969-3 0  9991,2 45201  53.1569 249.0054 0001144  83.8050 276.3081 15.30207871339603
STARLINK-1209,45206,53.0423,0.0011348,15.57012006,388.6226325153775,403.997918051361,1 45206U 20012AE  26097.91668981  .00046467  00000+0  63330-3 0  9998,2 45206  53.0423 192.3856 0011348   5.5743 215.4964 15.57012006  5970
STARLINK-1231,45212,53.0372,0.0002877,15.23785804,492.4566129419527,496.41109020994827,1 45212U 20012AL  26097.43503894  .00070037  00000+0  28589-2 0  9999,2 45212  53.0372 243.5117 0002877 225.8149 134.2611 15.23785804339606
STARLINK-1271,45217,53.158,0.000104,15.30142717,474.67334506420866,476.0988778713945,1 45217U 20012AR  26097.71458178 -.00001948  00000+0 -53771-4 0  9999,2 45217  53.1580 249.1408 0001040  81.3837 278.7282 15.30142717339604
STARLINK-1191,45222,53.1559,0.0003111,15.33335669,463.7393158349096,467.9976560482628,1 45222U 20012AW  26097.51459593  .00076480  00000+0  23285-2 0  9991,2 45222  53.1559 224.6773 0003111 342.7866  17.3030 15.33335669339933
STARLINK-1212,45223,53.0446,0.0004715,15.58355382,389.22413724139005,395.60876914775145,1 45223U 20012AX  26097.91668981  .00095725  00000+0  12291-2 0  9997,2 45223  53.0446 208.7938 0004715 294.4736 144.2371 15.58355382  5977
STARLINK-1215,45225,53.1586,8.76e-05,15.30220038,474.554891815842,475.75558861632817,1 45225U 20012AZ  26097.72075301  .00005751  00000+0  20601-3 0  9991,2 45225  53.1586 223.4543 0000876  92.7730 267.3371 15.30220038339929
STARLINK-1221,45227,53.0643,0.000381,15.43056755,434.4973013860408,439.6905073351636,1 45227U 20012BB  26097.80957983  .00013756  00000+0  31540-3 0  9995,2 45227  53.0643 131.5086 0003810  87.4778 272.6664 15.43056755341204
STARLINK-1222,45228,53.0549,0.0001255,15.51403793,411.77430668231773,413.4787883327417,1 45228U 20012BC  26097.69247767  .00025601  00000+0  43358-3 0  9997,2 45228  53.0549 203.5646 0001255 162.4742 197.6310 15.51403793340129
STARLINK-1226,45229,53.158,0.0001757,15.38069749,450.61764231224424,453.0176883816466,1 45229U 20012BD  26097.49257830  .00072970  00000+0  19111-2 0  9998,2 45229  53.1580 224.1577 0001757  33.3646 326.7469 15.38069749339834
STARLINK-1227,45230,53.1561,0.000149,15.38024919,450.93270032397777,452.9680663642139,1 45230U 20012BE  26097.63626504  .00074789  00000+0  19609-2 0  9996,2 45230  53.1561 223.6441 0001490  13.4289 346.6755 15.38024919339979
STARLINK-1246,45235,53.1576,0.0001283,15.30204102,474.3235381149616,476.08210511318794,1 45235U 20012BK  26097.75674483  .00005584  00000+0  20051-3 0  9994,2 45235  53.1576 264.2333 0001283 112.7001 247.4135 15.30204102339422
STARLINK-1270,45237,53.044,0.0003331,15.5248756,407.2048794726961,411.72678047802583,1 45237U 20012BM  26097.91668981  .00067274  00000+0  10781-2 0  9992,2 45237  53.0440 207.4211 0003331 321.8908 318.6502 15.52487560  5864
STARLINK-1279,45360,53.0403,0.0003769,15.63916978,373.80954410498816,378.9010804099689,1 45360U 20019A   26097.91668981  .00120552  00000+0  12446-2 0  9995,2 45360  53.0403 316.2729 0003769 233.5633 170.9112 15.63916978  5893
STARLINK-1301,45361,53.0423,0.0001525,15.68877748,361.0815022502993,363.1372773991952,1 45361U 20019B   26097.04653739  .00073166  00000+0  62443-3 0  9996,2 45361  53.0423 324.5241 0001525 285.7487  74.3361 15.68877748335054
STARLINK-1262,45366,53.1574,0.0001302,15.29371181,476.79826230528215,478.5835198881241,1 45366U 20019G   26097.23003439  .00006705  00000+0  24438-3 0  9995,2 45366  53.1574  32.7040 0001302 102.7602 257.3544 15.29371181334122
STARLINK-1273,45367,53.051,0.0004151,15.48908076,417.0972423330777,422.7409885201041,1 45367U 20019H   26097.10190557  .00127167  00000+0  22888-2 0  9992,2 45367  53.0510  19.2274 0004151 122.3841 237.7569 15.48908076334296
STARLINK-1277,45369,53.0491,0.0006129,15.54539578,399.33488960955674,407.64780964052625,1 45369U 20019K   26097.91668981  .00072745  00000+0  10805-2 0  9991,2 45369  53.0491  12.0652 0006129 129.2337  97.2326 15.54539578  5918
STARLINK-1281,45370,53.1616,0.0001051,15.30223329,474.42513413363395,475.86569409708136,1 45370U 20019L   26097.54055323  .00009074  00000+0  31787-3 0  9990,2 45370  53.1616  31.2788 0001051  91.5074 268.6047 15.30223329334176
STARLINK-1300,45374,53.1604,0.0001069,15.3023302,474.3838666271504,475.84909222105216,1 45374U 20019Q   26097.82393534  .00016704  00000+0  57424-3 0  9998,2 45374  53.1604  29.9680 0001069  87.5925 272.5198 15.30233020334216
STARLINK-1302,45375,53.0499,0.0002996,15.59712821,386.46026675676694,390.5148281856109,1 45375U 20019R   26097.91668981  .00063139  00000+0  77558-3 0  9994,2 45375  53.0499  10.1762 0002996 108.7407 211.3757 15.59712821  5930
STARLINK-1304,45376,53.0477,0.0003675,15.53769892,403.237688993544,408.2238317974343,1 45376U 20019S   26097.91668981  .00067912  00000+0  10389-2 0  9996,2 45376  53.0477   9.0889 0003675 127.8181 300.4062 15.53769892  5966
STARLINK-1305,45377,53.0423,0.0005458,15.59317826,385.93636648490246,393.3240611755209,1 45377U 20019T   26097.91668981  .00084662  00000+0  10503-2 0  9996,2 45377  53.0423 350.7466 0005458 189.2017  58.4729 15.59317826  5924
STARLINK-1319,45379,53.0445,0.0002536,15.6910153,359.75935734036284,363.17768526076543,1 45379U 20019V   26097.81763321  .00056372  00000+0  47876-3 0  9992,2 45379  53.0445 346.3201 0002536 152.5882 207.5268 15.69101530334828
STARLINK-1266,45383,53.0496,0.0004812,15.50469788,412.08442264662153,418.62247785594354,1 45383U 20019Z   26097.71671579  .00098449  00000+0  16848-2 0  9994,2 45383  53.0496 354.1477 0004812 131.6995 228.4426 15.50469788334698
STARLINK-1267,45384,53.0491,3.49e-05,15.55559283,400.29077445222356,400.7639252238423,1 45384U 20019AA  26097.91668981  .00064848  00000+0  93009-3 0  9991,2 45384  53.0491 346.2536 0000349 223.8615 159.7279 15.55559283  5979
STARLINK-1272,45386,53.0433,0.0004252,15.62238555,378.3182643639984,384.0663980272466,1 45386U 20019AC  26097.91668981  .00093481  00000+0  10353-2 0  9998,2 45386  53.0433 327.6238 0004252 218.3881 224.7433 15.62238555  5889
STARLINK-1274,45387,53.0268,0.0003475,15.52104694,408.22292719528014,412.94108690517896,1 45387U 20019AD  26097.03901820  .00115864  00000+0  18655-2 0  9997,2 45387  53.0268 326.9469 0003475 275.5549  84.5064 15.52104694335014
STARLINK-1280,45388,53.0423,0.0001567,15.69589055,359.01699345142424,361.12874842497604,1 45388U 20019AE  26097.85431066  .00060251  00000+0  50099-3 0  9996,2 45388  53.0423 338.8260 0001567 186.2088 173.8909 15.69589055334919
STARLINK-1283,45389,53.0438,5.93e-05,15.64844654,373.2851861430245,374.08595229973434,1 45389U 20019AF  26097.84724962  .00054258  00000+0  54757-3 0  9991,2 45389  53.0438 327.6890 0000593  84.6057 275.5024 15.64844654335087
STARLINK-1284,45390,53.0478,0.0004994,15.57371275,391.88573459046165,398.6510118772476,1 45390U 20019AG  26097.86907410  .00094126  00000+0  12543-2 0  9990,2 45390  53.0478 350.0376 0004994 144.8979 215.2362 15.57371275334769
STARLINK-1297,45395,53.0462,0.0005693,15.60506804,382.3411894496803,390.0430545880117,1 45395U 20019AM  26097.91668981  .00076582  00000+0  90940-3 0  9992,2 45395  53.0462 348.9552 0005693 145.6823 339.0366 15.60506804  5994
STARLINK-1307,45397,53.056,0.00021,15.52861367,406.95133748516037,409.8016731573962,1 45397U 20019AP  26097.86972593  .00024183  00000+0  38927-3 0  9992,2 45397  53.0560 350.4909 0002100  98.5144 261.6103 15.52861367334589
STARLINK-1255,45399,53.0399,0.0001567,15.57834782,392.86358418370946,394.9859483412565,1 45399U 20019AR  26097.91668981  .00090419  00000+0  11854-2 0  9997,2 45399  53.0399 321.4896 0001567 206.9087  24.3266 15.57834782  5878
STARLINK-1260,45404,53.16,0.0001727,15.32466329,467.274153645104,469.6389670608505,1 45404U 20019AW  26097.42422088  .00076564  00000+0  23957-2 0  9998,2 45404  53.1600 355.6431 0001727 172.8765 187.2262 15.32466329334373
STARLINK-1263,45405,53.1608,0.0001226,15.30210637,474.3430923686983,476.023526508573,1 45405U 20019AX  26097.42464448  .00009044  00000+0  31702-3 0  9992,2 45405  53.1608 355.8018 0001226  87.6955 272.4186 15.30210637334372
STARLINK-1265,45406,53.1608,0.0001929,15.32515986,466.98798339418136,469.62934213087647,1 45406U 20019AY  26097.42718880  .00080814  00000+0  25227-2 0  9993,2 45406  53.1608 355.7322 0001929 163.8919 196.2145 15.32515986334372
